HULIANWANG DIGUI-107    
1 66917U 25285C   26001.14595140 -.00000038  00000+0  77514-4 0  9998
2 66917  50.0039  38.3149 0000362 123.8170 236.2767 13.98317328  3639
HULIANWANG DIGUI-108    
1 66918U 25285D   25365.35858777 -.00000050  00000+0  68105-4 0  9992
2 66918  50.0054  41.4885 0000322 353.1378   6.9520 13.99605219  3520
HULIANWANG DIGUI-109    
1 66919U 25285E   26001.21340642 -.00000026  00000+0  85593-4 0  9996
2 66919  50.0124  38.0139 0000682   2.3105 357.7800 13.98552082  3642
HULIANWANG DIGUI-110    
1 66920U 25285F   26001.21173685  .00000340  00000+0  33621-3 0  9991
2 66920  50.0103  38.0150 0001212 162.8691 197.2253 13.99149298  3647
HULIANWANG DIGUI-111    
1 66921U 25285G   26001.21049087 -.00000172  00000+0 -15368-4 0  9994
2 66921  50.0117  38.0130 0001677 162.7860 197.3100 13.99211988  3641
HULIANWANG DIGUI-112    
1 66922U 25285H   26001.13761575  .00000086  00000+0  16144-3 0  9993
2 66922  50.0099  38.2867 0000417 125.1514 234.9427 13.99159306  3634
HULIANWANG DIGUI-113    
1 66923U 25285J   26001.20683186  .00000495  00000+0  44083-3 0  9990
2 66923  50.0101  37.9911 0000220 281.2774  78.8104 13.99381743  3649
CZ-8A R/B               
1 66924U 25285K   26001.08143531  .00000190  00000+0  12535-3 0  9991
2 66924  50.0088  33.8227 0119197 174.9169 185.2987 14.30511678  3694
STARLINK-35945          
1 66925U 25286A   25365.99293172  .01054459  00000+0  16410-1 0  9994
2 66925  53.1596 315.6237 0008183 169.2558 190.8628 15.50630209  5013
STARLINK-35942          
1 66926U 25286B   26001.16668980 -.02592257  00000+0 -66974-1 0  9991
2 66926  53.1600 314.9048 0001778 106.8909  87.8076 15.42465402  5117
STARLINK-35943          
1 66927U 25286C   26001.12771058  .00107523  00000+0  19120-2 0  9995
2 66927  53.1602 315.0442 0001137  77.5249 282.5887 15.49351125  5038
STARLINK-35944          
1 66928U 25286D   26001.16668980 -.00107345  00000+0 -19458-2 0  9997
2 66928  53.1594 314.8657 0001306  86.7857 127.0333 15.49349483  5111
