CCSDS_OMM_VERS = 2.0
CREATION_DATE  = 
ORIGINATOR     = 

OBJECT_NAME    = HULIANWANG DIGUI-107
OBJECT_ID      = 2025-285C
CENTER_NAME    = EARTH
REF_FRAME      = TEME
TIME_SYSTEM    = UTC
MEAN_ELEMENT_THEORY = SGP/SGP4

EPOCH          = 2026-01-01T03:30:10.200960
MEAN_MOTION    = 13.98317328
ECCENTRICITY   = .0000362
INCLINATION    = 50.0039
RA_OF_ASC_NODE = 38.3149
ARG_OF_PERICENTER = 123.8170
MEAN_ANOMALY   = 236.2767

EPHEMERIS_TYPE = 0
CLASSIFICATION_TYPE = U
NORAD_CAT_ID   = 66917
ELEMENT_SET_NO = 999
REV_AT_EPOCH   = 363
BSTAR          = .77514E-4
MEAN_MOTION_DOT = -.38E-6
MEAN_MOTION_DDOT = 0

CCSDS_OMM_VERS = 2.0
CREATION_DATE  = 
ORIGINATOR     = 

OBJECT_NAME    = HULIANWANG DIGUI-108
OBJECT_ID      = 2025-285D
CENTER_NAME    = EARTH
REF_FRAME      = TEME
TIME_SYSTEM    = UTC
MEAN_ELEMENT_THEORY = SGP/SGP4

EPOCH          = 2025-12-31T08:36:21.983328
MEAN_MOTION    = 13.99605219
ECCENTRICITY   = .00003224
INCLINATION    = 50.0054
RA_OF_ASC_NODE = 41.4885
ARG_OF_PERICENTER = 353.1378
MEAN_ANOMALY   = 6.9520

EPHEMERIS_TYPE = 0
CLASSIFICATION_TYPE = U
NORAD_CAT_ID   = 66918
ELEMENT_SET_NO = 999
REV_AT_EPOCH   = 352
BSTAR          = .68105042E-4
MEAN_MOTION_DOT = -.5E-6
MEAN_MOTION_DDOT = 0

CCSDS_OMM_VERS = 2.0
CREATION_DATE  = 
ORIGINATOR     = 

OBJECT_NAME    = HULIANWANG DIGUI-109
OBJECT_ID      = 2025-285E
CENTER_NAME    = EARTH
REF_FRAME      = TEME
TIME_SYSTEM    = UTC
MEAN_ELEMENT_THEORY = SGP/SGP4

EPOCH          = 2026-01-01T05:07:18.314688
MEAN_MOTION    = 13.98552082
ECCENTRICITY   = .0000682
INCLINATION    = 50.0124
RA_OF_ASC_NODE = 38.0139
ARG_OF_PERICENTER = 2.3105
MEAN_ANOMALY   = 357.7800

EPHEMERIS_TYPE = 0
CLASSIFICATION_TYPE = U
NORAD_CAT_ID   = 66919
ELEMENT_SET_NO = 999
REV_AT_EPOCH   = 364
BSTAR          = .85593E-4
MEAN_MOTION_DOT = -.26E-6
MEAN_MOTION_DDOT = 0

CCSDS_OMM_VERS = 2.0
CREATION_DATE  = 
ORIGINATOR     = 

OBJECT_NAME    = HULIANWANG DIGUI-110
OBJECT_ID      = 2025-285F
CENTER_NAME    = EARTH
REF_FRAME      = TEME
TIME_SYSTEM    = UTC
MEAN_ELEMENT_THEORY = SGP/SGP4

EPOCH          = 2026-01-01T05:04:54.063840
MEAN_MOTION    = 13.99149298
ECCENTRICITY   = .0001212
INCLINATION    = 50.0103
RA_OF_ASC_NODE = 38.0150
ARG_OF_PERICENTER = 162.8691
MEAN_ANOMALY   = 197.2253

EPHEMERIS_TYPE = 0
CLASSIFICATION_TYPE = U
NORAD_CAT_ID   = 66920
ELEMENT_SET_NO = 999
REV_AT_EPOCH   = 364
BSTAR          = .33621E-3
MEAN_MOTION_DOT = .34E-5
MEAN_MOTION_DDOT = 0

CCSDS_OMM_VERS = 2.0
CREATION_DATE  = 
ORIGINATOR     = 

OBJECT_NAME    = HULIANWANG DIGUI-111
OBJECT_ID      = 2025-285G
CENTER_NAME    = EARTH
REF_FRAME      = TEME
TIME_SYSTEM    = UTC
MEAN_ELEMENT_THEORY = SGP/SGP4

EPOCH          = 2026-01-01T05:03:06.411168
MEAN_MOTION    = 13.99211988
ECCENTRICITY   = .0001677
INCLINATION    = 50.0117
RA_OF_ASC_NODE = 38.0130
ARG_OF_PERICENTER = 162.7860
MEAN_ANOMALY   = 197.3100

EPHEMERIS_TYPE = 0
CLASSIFICATION_TYPE = U
NORAD_CAT_ID   = 66921
ELEMENT_SET_NO = 999
REV_AT_EPOCH   = 364
BSTAR          = -.15368E-4
MEAN_MOTION_DOT = -.172E-5
MEAN_MOTION_DDOT = 0

CCSDS_OMM_VERS = 2.0
CREATION_DATE  = 
ORIGINATOR     = 

OBJECT_NAME    = HULIANWANG DIGUI-112
OBJECT_ID      = 2025-285H
CENTER_NAME    = EARTH
REF_FRAME      = TEME
TIME_SYSTEM    = UTC
MEAN_ELEMENT_THEORY = SGP/SGP4

EPOCH          = 2026-01-01T03:18:10.000800
MEAN_MOTION    = 13.99159306
ECCENTRICITY   = .0000417
INCLINATION    = 50.0099
RA_OF_ASC_NODE = 38.2867
ARG_OF_PERICENTER = 125.1514
MEAN_ANOMALY   = 234.9427

EPHEMERIS_TYPE = 0
CLASSIFICATION_TYPE = U
NORAD_CAT_ID   = 66922
ELEMENT_SET_NO = 999
REV_AT_EPOCH   = 363
BSTAR          = .16144E-3
MEAN_MOTION_DOT = .86E-6
MEAN_MOTION_DDOT = 0

CCSDS_OMM_VERS = 2.0
CREATION_DATE  = 
ORIGINATOR     = 

OBJECT_NAME    = HULIANWANG DIGUI-113
OBJECT_ID      = 2025-285J
CENTER_NAME    = EARTH
REF_FRAME      = TEME
TIME_SYSTEM    = UTC
MEAN_ELEMENT_THEORY = SGP/SGP4

EPOCH          = 2026-01-01T04:57:50.272704
MEAN_MOTION    = 13.99381743
ECCENTRICITY   = .000022
INCLINATION    = 50.0101
RA_OF_ASC_NODE = 37.9911
ARG_OF_PERICENTER = 281.2774
MEAN_ANOMALY   = 78.8104

EPHEMERIS_TYPE = 0
CLASSIFICATION_TYPE = U
NORAD_CAT_ID   = 66923
ELEMENT_SET_NO = 999
REV_AT_EPOCH   = 364
BSTAR          = .44083E-3
MEAN_MOTION_DOT = .495E-5
MEAN_MOTION_DDOT = 0

CCSDS_OMM_VERS = 2.0
CREATION_DATE  = 
ORIGINATOR     = 

OBJECT_NAME    = CZ-8A R/B
OBJECT_ID      = 2025-285K
CENTER_NAME    = EARTH
REF_FRAME      = TEME
TIME_SYSTEM    = UTC
MEAN_ELEMENT_THEORY = SGP/SGP4

EPOCH          = 2026-01-01T01:57:16.010784
MEAN_MOTION    = 14.30511678
ECCENTRICITY   = .0119197
INCLINATION    = 50.0088
RA_OF_ASC_NODE = 33.8227
ARG_OF_PERICENTER = 174.9169
MEAN_ANOMALY   = 185.2987

EPHEMERIS_TYPE = 0
CLASSIFICATION_TYPE = U
NORAD_CAT_ID   = 66924
ELEMENT_SET_NO = 999
REV_AT_EPOCH   = 369
BSTAR          = .12535E-3
MEAN_MOTION_DOT = .19E-5
MEAN_MOTION_DDOT = 0

CCSDS_OMM_VERS = 2.0
CREATION_DATE  = 
ORIGINATOR     = 

OBJECT_NAME    = STARLINK-35945
OBJECT_ID      = 2025-286A
CENTER_NAME    = EARTH
REF_FRAME      = TEME
TIME_SYSTEM    = UTC
MEAN_ELEMENT_THEORY = SGP/SGP4

EPOCH          = 2025-12-31T23:49:49.300608
MEAN_MOTION    = 15.50630209
ECCENTRICITY   = .0008183
INCLINATION    = 53.1596
RA_OF_ASC_NODE = 315.6237
ARG_OF_PERICENTER = 169.2558
MEAN_ANOMALY   = 190.8628

EPHEMERIS_TYPE = 0
CLASSIFICATION_TYPE = U
NORAD_CAT_ID   = 66925
ELEMENT_SET_NO = 999
REV_AT_EPOCH   = 501
BSTAR          = .1641E-1
MEAN_MOTION_DOT = .1054459E-1
MEAN_MOTION_DDOT = 0

CCSDS_OMM_VERS = 2.0
CREATION_DATE  = 
ORIGINATOR     = 

OBJECT_NAME    = STARLINK-35942
OBJECT_ID      = 2025-286B
CENTER_NAME    = EARTH
REF_FRAME      = TEME
TIME_SYSTEM    = UTC
MEAN_ELEMENT_THEORY = SGP/SGP4

EPOCH          = 2026-01-01T04:00:01.998720
MEAN_MOTION    = 15.42465402
ECCENTRICITY   = .0001778
INCLINATION    = 53.1600
RA_OF_ASC_NODE = 314.9048
ARG_OF_PERICENTER = 106.8909
MEAN_ANOMALY   = 87.8076

EPHEMERIS_TYPE = 0
CLASSIFICATION_TYPE = U
NORAD_CAT_ID   = 66926
ELEMENT_SET_NO = 999
REV_AT_EPOCH   = 511
BSTAR          = -.66974E-1
MEAN_MOTION_DOT = -.2592257E-1
MEAN_MOTION_DDOT = 0

CCSDS_OMM_VERS = 2.0
CREATION_DATE  = 
ORIGINATOR     = 

OBJECT_NAME    = STARLINK-35943
OBJECT_ID      = 2025-286C
CENTER_NAME    = EARTH
REF_FRAME      = TEME
TIME_SYSTEM    = UTC
MEAN_ELEMENT_THEORY = SGP/SGP4

EPOCH          = 2026-01-01T03:03:54.194112
MEAN_MOTION    = 15.49351125
ECCENTRICITY   = .0001137
INCLINATION    = 53.1602
RA_OF_ASC_NODE = 315.0442
ARG_OF_PERICENTER = 77.5249
MEAN_ANOMALY   = 282.5887

EPHEMERIS_TYPE = 0
CLASSIFICATION_TYPE = U
NORAD_CAT_ID   = 66927
ELEMENT_SET_NO = 999
REV_AT_EPOCH   = 503
BSTAR          = .1912E-2
MEAN_MOTION_DOT = .107523E-2
MEAN_MOTION_DDOT = 0

CCSDS_OMM_VERS = 2.0
CREATION_DATE  = 
ORIGINATOR     = 

OBJECT_NAME    = STARLINK-35944
OBJECT_ID      = 2025-286D
CENTER_NAME    = EARTH
REF_FRAME      = TEME
TIME_SYSTEM    = UTC
MEAN_ELEMENT_THEORY = SGP/SGP4

EPOCH          = 2026-01-01T04:00:01.998720
MEAN_MOTION    = 15.49349483
ECCENTRICITY   = .0001306
INCLINATION    = 53.1594
RA_OF_ASC_NODE = 314.8657
ARG_OF_PERICENTER = 86.7857
MEAN_ANOMALY   = 127.0333

EPHEMERIS_TYPE = 0
CLASSIFICATION_TYPE = U
NORAD_CAT_ID   = 66928
ELEMENT_SET_NO = 999
REV_AT_EPOCH   = 511
BSTAR          = -.19458E-2
MEAN_MOTION_DOT = -.107345E-2
MEAN_MOTION_DDOT = 0

